Sample	W_E_Boreal	PNW	PacificCoast	BGP_ID	CollectionDate	Country_code	State	CityTown	Location	ClimGroup	Lat	Long	Stage	Reference 
00N0540	1	0	0	00N0540	1/4/00	Ecuador	Napo	Guamani	Hollin	Ecuador_Hollin	-0.689	-77.727	Wintering	Turbek et al. (In revision). Migratory connectivity influences the strength of local adaptation in migratory birds
00N5500	0	1	0	00N5500	12/17/00	Mexico	Chiapas	Ocozocoautla	Ocozocoautla	Mexico_Ocozocoautla	16.999774	-93.66657	Wintering	Turbek et al. (In revision). Migratory connectivity influences the strength of local adaptation in migratory birds
00N5502	0	0	1	00N5502	12/17/00	Mexico	Chiapas	Ocozocoautla	Ocozocoautla	Mexico_Ocozocoautla	16.999774	-93.66657	Wintering	Turbek et al. (In revision). Migratory connectivity influences the strength of local adaptation in migratory birds
00N5503	0	0	1	00N5503	12/17/00	Mexico	Chiapas	Ocozocoautla	Ocozocoautla	Mexico_Ocozocoautla	16.999774	-93.66657	Wintering	Turbek et al. (In revision). Migratory connectivity influences the strength of local adaptation in migratory birds
00N5505	0	0	1	00N5505	12/17/00	Mexico	Chiapas	Ocozocoautla	Ocozocoautla	Mexico_Ocozocoautla	16.999774	-93.66657	Wintering	Turbek et al. (In revision). Migratory connectivity influences the strength of local adaptation in migratory birds
00N5507	0	0	1	00N5507	12/17/00	Mexico	Chiapas	Ocozocoautla	Ocozocoautla	Mexico_Ocozocoautla	16.999774	-93.66657	Wintering	Turbek et al. (In revision). Migratory connectivity influences the strength of local adaptation in migratory birds
00N5508	0	0	1	00N5508	12/17/00	Mexico	Chiapas	Ocozocoautla	Ocozocoautla	Mexico_Ocozocoautla	16.999774	-93.66657	Wintering	Turbek et al. (In revision). Migratory connectivity influences the strength of local adaptation in migratory birds
00N5509	0	0	1	00N5509	12/17/00	Mexico	Chiapas	Ocozocoautla	Ocozocoautla	Mexico_Ocozocoautla	16.999774	-93.66657	Wintering	Turbek et al. (In revision). Migratory connectivity influences the strength of local adaptation in migratory birds
01N3090	1	0	0	01N3090	1/10/01	Ecuador	Napo	HOLLIN 2	Hollin	Ecuador_Hollin	-0.689	-77.727	Wintering	Turbek et al. (In revision). Migratory connectivity influences the strength of local adaptation in migratory birds
01N3108	1	0	0	01N3108	1/10/01	Ecuador	Napo	HOLLIN 2	Hollin	Ecuador_Hollin	-0.689	-77.727	Wintering	Turbek et al. (In revision). Migratory connectivity influences the strength of local adaptation in migratory birds
01N3113	1	0	0	01N3113	1/10/01	Ecuador	Napo	HOLLIN 2	Hollin	Ecuador_Hollin	-0.689	-77.727	Wintering	Turbek et al. (In revision). Migratory connectivity influences the strength of local adaptation in migratory birds
01N3117	1	0	0	01N3117	1/10/01	Ecuador	Napo	HOLLIN 2	Hollin	Ecuador_Hollin	-0.689	-77.727	Wintering	Turbek et al. (In revision). Migratory connectivity influences the strength of local adaptation in migratory birds
01N3119	1	0	0	01N3119	1/11/01	Ecuador	Napo	HOLLIN 2	Hollin	Ecuador_Hollin	-0.689	-77.727	Wintering	Turbek et al. (In revision). Migratory connectivity influences the strength of local adaptation in migratory birds
01N3120	1	0	0	01N3120	1/11/01	Ecuador	Napo	HOLLIN 2	Hollin	Ecuador_Hollin	-0.689	-77.727	Wintering	Turbek et al. (In revision). Migratory connectivity influences the strength of local adaptation in migratory birds
01N3121	1	0	0	01N3121	1/11/01	Ecuador	Napo	HOLLIN 2	Hollin	Ecuador_Hollin	-0.689	-77.727	Wintering	Turbek et al. (In revision). Migratory connectivity influences the strength of local adaptation in migratory birds
01N3123	1	0	0	01N3123	1/14/01	Ecuador	Pichincha	Mindo	Mindo	Ecuador_Mindo	-0.04847	-78.77523	Wintering	Turbek et al. (In revision). Migratory connectivity influences the strength of local adaptation in migratory birds
01N3127	1	0	0	01N3127	1/14/01	Ecuador	Pichincha	Mindo	Mindo	Ecuador_Mindo	-0.04847	-78.77523	Wintering	Turbek et al. (In revision). Migratory connectivity influences the strength of local adaptation in migratory birds
01N3145	1	0	0	01N3145	1/14/01	Ecuador	Pichincha	Mindo	Mindo	Ecuador_Mindo	-0.04847	-78.77523	Wintering	Turbek et al. (In revision). Migratory connectivity influences the strength of local adaptation in migratory birds
01N3151	1	0	0	01N3151	1/15/01	Ecuador	Pichincha	Mindo	Mindo	Ecuador_Mindo	-0.04847	-78.77523	Wintering	Turbek et al. (In revision). Migratory connectivity influences the strength of local adaptation in migratory birds
01N3153	1	0	0	01N3153	1/15/01	Ecuador	Pichincha	Mindo	Mindo	Ecuador_Mindo	-0.04847	-78.77523	Wintering	Turbek et al. (In revision). Migratory connectivity influences the strength of local adaptation in migratory birds
01N3194	1	0	0	01N3194	1/19/01	Ecuador	Pichincha	Mindo	Mindo	Ecuador_Mindo	-0.04847	-78.77523	Wintering	Turbek et al. (In revision). Migratory connectivity influences the strength of local adaptation in migratory birds
01N3195	1	0	0	01N3195	1/19/01	Ecuador	Pichincha	Mindo	Mindo	Ecuador_Mindo	-0.04847	-78.77523	Wintering	Turbek et al. (In revision). Migratory connectivity influences the strength of local adaptation in migratory birds
01N3200	1	0	0	01N3200	1/21/01	Ecuador	Pichincha	Mindo	Mindo	Ecuador_Mindo	-0.04847	-78.77523	Wintering	Turbek et al. (In revision). Migratory connectivity influences the strength of local adaptation in migratory birds
03N1491	1	0	0	03N1491	12/16/03	Costa Rica	Guanacaste	NA	Guanacaste	Costa Rica_Guanacaste	11.5667	-85.6667	Wintering	Turbek et al. (In revision). Migratory connectivity influences the strength of local adaptation in migratory birds
03N1492	0	0	1	03N1492	12/31/03	Costa Rica	Costa Rica	CURU WILDLIFE REFUGE	Curu Wildlife Refuge	Costa Rica_Monte Verde	10.643	-84.9278	Wintering	Turbek et al. (In revision). Migratory connectivity influences the strength of local adaptation in migratory birds
04N0076	1	0	0	04N0076	1/28/04	Ecuador	Pichincha	Mindo	Mindo	Ecuador_Mindo	-0.04847	-78.77523	Wintering	Turbek et al. (In revision). Migratory connectivity influences the strength of local adaptation in migratory birds
07N11572	0	1	0	07N11572	12/17/07	Guatemala	Izabal	NA	Izabal	Guatemala_Izabal	15.638889	-88.869444	Wintering	Turbek et al. (In revision). Migratory connectivity influences the strength of local adaptation in migratory birds
07N51683	0	0	1	07N51683	2/9/08	El Salvador	Santa Ana	Metapan	Metapan	El Salvador_Santa Ana	14.4025	-89.360278	Wintering	Turbek et al. (In revision). Migratory connectivity influences the strength of local adaptation in migratory birds
07N51685	0	0	1	07N51685	2/9/08	El Salvador	Santa Ana	Metapan	Metapan	El Salvador_Santa Ana	14.4025	-89.360278	Wintering	Turbek et al. (In revision). Migratory connectivity influences the strength of local adaptation in migratory birds
07N51690	0	1	0	07N51690	2/9/08	El Salvador	Santa Ana	Metapan	Metapan	El Salvador_Santa Ana	14.4025	-89.360278	Wintering	Turbek et al. (In revision). Migratory connectivity influences the strength of local adaptation in migratory birds
07N51755	0	0	1	07N51755	2/20/08	El Salvador	Ahuachapan	San Miguelito	San Miguelito	El Salvador_San Miguelito	13.823056	-89.943333	Wintering	Turbek et al. (In revision). Migratory connectivity influences the strength of local adaptation in migratory birds
07N51761	0	0	1	07N51761	2/21/08	El Salvador	Ahuachapan	San Miguelito	San Miguelito	El Salvador_San Miguelito	13.823056	-89.943333	Wintering	Turbek et al. (In revision). Migratory connectivity influences the strength of local adaptation in migratory birds
07N51762	0	0	1	07N51762	2/21/08	El Salvador	Ahuachapan	San Miguelito	San Miguelito	El Salvador_San Miguelito	13.823056	-89.943333	Wintering	Turbek et al. (In revision). Migratory connectivity influences the strength of local adaptation in migratory birds
07N51764	0	1	0	07N51764	2/21/08	El Salvador	Ahuachapan	San Miguelito	San Miguelito	El Salvador_San Miguelito	13.823056	-89.943333	Wintering	Turbek et al. (In revision). Migratory connectivity influences the strength of local adaptation in migratory birds
07N51768	0	0	1	07N51768	2/21/08	El Salvador	Ahuachapan	San Miguelito	San Miguelito	El Salvador_San Miguelito	13.823056	-89.943333	Wintering	Turbek et al. (In revision). Migratory connectivity influences the strength of local adaptation in migratory birds
07N51770	0	1	0	07N51770	2/21/08	El Salvador	Ahuachapan	San Miguelito	San Miguelito	El Salvador_San Miguelito	13.823056	-89.943333	Wintering	Turbek et al. (In revision). Migratory connectivity influences the strength of local adaptation in migratory birds
07N51771	0	0	1	07N51771	2/22/08	El Salvador	Ahuachapan	San Miguelito	San Miguelito	El Salvador_San Miguelito	13.823056	-89.943333	Wintering	Turbek et al. (In revision). Migratory connectivity influences the strength of local adaptation in migratory birds
07N52102	0	0	1	07N52102	1/20/08	Nicaragua	Granada	NA	Granada	Nicaragua_Granada	11.832222	-86.008333	Wintering	Turbek et al. (In revision). Migratory connectivity influences the strength of local adaptation in migratory birds
07N52103	0	0	1	07N52103	1/20/08	Nicaragua	Granada	NA	Granada	Nicaragua_Granada	11.832222	-86.008333	Wintering	Turbek et al. (In revision). Migratory connectivity influences the strength of local adaptation in migratory birds
07N52107	0	0	1	07N52107	1/20/08	Nicaragua	Granada	NA	Granada	Nicaragua_Granada	11.832222	-86.008333	Wintering	Turbek et al. (In revision). Migratory connectivity influences the strength of local adaptation in migratory birds
07N52110	0	0	1	07N52110	1/19/08	Nicaragua	Granada	NA	Granada	Nicaragua_Granada	11.832222	-86.008333	Wintering	Turbek et al. (In revision). Migratory connectivity influences the strength of local adaptation in migratory birds
07N52112	0	0	1	07N52112	1/19/08	Nicaragua	Granada	NA	Granada	Nicaragua_Granada	11.832222	-86.008333	Wintering	Turbek et al. (In revision). Migratory connectivity influences the strength of local adaptation in migratory birds
07N52116	0	0	1	07N52116	12/15/07	Nicaragua	Granada	NA	Granada	Nicaragua_Granada	11.832222	-86.008333	Wintering	Turbek et al. (In revision). Migratory connectivity influences the strength of local adaptation in migratory birds
07N52117	0	1	0	07N52117	12/15/07	Nicaragua	Granada	NA	Granada	Nicaragua_Granada	11.832222	-86.008333	Wintering	Turbek et al. (In revision). Migratory connectivity influences the strength of local adaptation in migratory birds
07N53164	0	0.6	0.4	07N53164	2/7/08	Mexico	Tamaulipas	NA	Tamaulipas	Mexico_Tamaulipas	23.0494	-99.1519	Wintering	Turbek et al. (In revision). Migratory connectivity influences the strength of local adaptation in migratory birds
07N53506	0	1	0	07N53506	12/12/07	Mexico	Tamaulipas	NA	Tamaulipas	Mexico_Tamaulipas	23.0639	-99.1969	Wintering	Turbek et al. (In revision). Migratory connectivity influences the strength of local adaptation in migratory birds
07N53522	0	1	0	07N53522	1/8/08	Mexico	Tamaulipas	NA	Tamaulipas	Mexico_Tamaulipas	23.0494	-99.1519	Wintering	Turbek et al. (In revision). Migratory connectivity influences the strength of local adaptation in migratory birds
07N53531	0	1	0	07N53531	1/11/08	Mexico	Tamaulipas	NA	Tamaulipas	Mexico_Tamaulipas	23.06388	-99.196944	Wintering	Turbek et al. (In revision). Migratory connectivity influences the strength of local adaptation in migratory birds
07N53534	0	1	0	07N53534	1/12/08	Mexico	Tamaulipas	NA	Tamaulipas	Mexico_Tamaulipas	23.06388	-99.196944	Wintering	Turbek et al. (In revision). Migratory connectivity influences the strength of local adaptation in migratory birds
07N65805	0	0.4	0.6	07N65805	2/10/09	Costa Rica	Costa Rica	NA	Costa Rica	Costa Rica	8.754194245	-82.92589174	Wintering	Turbek et al. (In revision). Migratory connectivity influences the strength of local adaptation in migratory birds
07N65824	1	0	0	07N65824	2/11/09	Costa Rica	Costa Rica	NA	Costa Rica	Costa Rica	8.78423595	-82.97475182	Wintering	Turbek et al. (In revision). Migratory connectivity influences the strength of local adaptation in migratory birds
07N66043	0	0	1	07N66043	2/11/09	Costa Rica	Costa Rica	NA	Costa Rica	Costa Rica	8.801173175	-82.97251855	Wintering	Turbek et al. (In revision). Migratory connectivity influences the strength of local adaptation in migratory birds
07N66044	0	0	1	07N66044	2/12/09	Costa Rica	Costa Rica	NA	Costa Rica	Costa Rica	8.801173175	-82.97251855	Wintering	Turbek et al. (In revision). Migratory connectivity influences the strength of local adaptation in migratory birds
07N66048	0	0	1	07N66048	2/12/09	Costa Rica	Costa Rica	NA	Costa Rica	Costa Rica	8.801173175	-82.97251855	Wintering	Turbek et al. (In revision). Migratory connectivity influences the strength of local adaptation in migratory birds
07N66049	0	0	1	07N66049	2/12/09	Costa Rica	Costa Rica	NA	Costa Rica	Costa Rica	8.801173175	-82.97251855	Wintering	Turbek et al. (In revision). Migratory connectivity influences the strength of local adaptation in migratory birds
08N0701	0	0	1	08N0701	2/16/08	Nicaragua	Managua	Ticuantepe	Ticuantepe	Nicaragua_Managua	11.978889	-86.262778	Wintering	Turbek et al. (In revision). Migratory connectivity influences the strength of local adaptation in migratory birds
08N0718	0	0	1	08N0718	2/16/08	Nicaragua	Managua	Ticuantepe	Ticuantepe	Nicaragua_Managua	11.978889	-86.262778	Wintering	Turbek et al. (In revision). Migratory connectivity influences the strength of local adaptation in migratory birds
08N0719	0	0	1	08N0719	2/17/08	Nicaragua	Managua	Ticuantepe	Ticuantepe	Nicaragua_Managua	11.978889	-86.262778	Wintering	Turbek et al. (In revision). Migratory connectivity influences the strength of local adaptation in migratory birds
08N0720	0	0	1	08N0720	2/17/08	Nicaragua	Managua	Ticuantepe	Ticuantepe	Nicaragua_Managua	11.978889	-86.262778	Wintering	Turbek et al. (In revision). Migratory connectivity influences the strength of local adaptation in migratory birds
08N0723	0	0	1	08N0723	2/16/08	Nicaragua	Managua	NA	Managua	Nicaragua_Managua	11.978889	-86.262778	Wintering	Turbek et al. (In revision). Migratory connectivity influences the strength of local adaptation in migratory birds
08N33422	0	0	1	08N33422	1/10/09	El Salvador	Santa Ana	NA	Santa Ana	El Salvador_Santa Ana	14.805	-89.3603	Wintering	Turbek et al. (In revision). Migratory connectivity influences the strength of local adaptation in migratory birds
08N33424	0	0	1	08N33424	1/11/09	El Salvador	Santa Ana	NA	Santa Ana	El Salvador_Santa Ana	14.2409	-89.2137	Wintering	Turbek et al. (In revision). Migratory connectivity influences the strength of local adaptation in migratory birds
08N33426	0	0	1	08N33426	1/11/09	El Salvador	Santa Ana	NA	Santa Ana	El Salvador_Santa Ana	14.2409	-89.2137	Wintering	Turbek et al. (In revision). Migratory connectivity influences the strength of local adaptation in migratory birds
08N33430	0	0	1	08N33430	1/12/09	El Salvador	Santa Ana	NA	Santa Ana	El Salvador_Santa Ana	14.2409	-89.2137	Wintering	Turbek et al. (In revision). Migratory connectivity influences the strength of local adaptation in migratory birds
09N0717	0	0	1	09N0717	2/2/09	Costa Rica	Costa Rica	NA	Costa Rica	Costa Rica	8.801173175	-82.97251855	Wintering	Turbek et al. (In revision). Migratory connectivity influences the strength of local adaptation in migratory birds
09N0718	0	0	1	09N0718	2/3/09	Costa Rica	Costa Rica	NA	Costa Rica	Costa Rica	8.801173175	-82.97251855	Wintering	Turbek et al. (In revision). Migratory connectivity influences the strength of local adaptation in migratory birds
13N01560	1	0	0	13N01560	12/12/13	Colombia	Cundinamarca	La Fragua	La Fragua	Colombia_Cundinamarca	4.322412	-74.536308	Wintering	Turbek et al. (In revision). Migratory connectivity influences the strength of local adaptation in migratory birds
13N01561	1	0	0	13N01561	12/13/13	Colombia	Cundinamarca	La Fragua	La Fragua	Colombia_Cundinamarca	4.322412	-74.536308	Wintering	Turbek et al. (In revision). Migratory connectivity influences the strength of local adaptation in migratory birds
13N01563	1	0	0	13N01563	12/14/13	Colombia	Cundinamarca	Los Vientos	Los Vientos	Colombia_Cundinamarca	4.365643021	-74.51534702	Wintering	Turbek et al. (In revision). Migratory connectivity influences the strength of local adaptation in migratory birds
13N01565	1	0	0	13N01565	12/19/13	Colombia	Cundinamarca	Los Vientos	Los Vientos	Colombia_Cundinamarca	4.365643021	-74.51534702	Wintering	Turbek et al. (In revision). Migratory connectivity influences the strength of local adaptation in migratory birds
13N01567	1	0	0	13N01567	12/21/13	Colombia	Cundinamarca	La Vuelta	La Vuelta	Colombia_Cundinamarca	4.325313	-74.481858	Wintering	Turbek et al. (In revision). Migratory connectivity influences the strength of local adaptation in migratory birds
13N1294	1	0	0	13N1294	1/9/13	Ecuador	Napo	Cosanga	Cosanga	Ecuador_Cosanga	0.5782	-77.8675	Wintering	Turbek et al. (In revision). Migratory connectivity influences the strength of local adaptation in migratory birds
13N1297	1	0	0	13N1297	1/7/13	Ecuador	Napo	Cosanga	Cosanga	Ecuador_Cosanga	0.5782	-77.8675	Wintering	Turbek et al. (In revision). Migratory connectivity influences the strength of local adaptation in migratory birds
13N1298	1	0	0	13N1298	1/7/13	Ecuador	Napo	Cosanga	Cosanga	Ecuador_Cosanga	0.5782	-77.8675	Wintering	Turbek et al. (In revision). Migratory connectivity influences the strength of local adaptation in migratory birds
13N1299	1	0	0	13N1299	1/7/13	Ecuador	Napo	Cosanga	Cosanga	Ecuador_Cosanga	0.5782	-77.8675	Wintering	Turbek et al. (In revision). Migratory connectivity influences the strength of local adaptation in migratory birds
13N1300	1	0	0	13N1300	1/7/13	Ecuador	Napo	Cosanga	Cosanga	Ecuador_Cosanga	0.5782	-77.8675	Wintering	Turbek et al. (In revision). Migratory connectivity influences the strength of local adaptation in migratory birds
13N1301	1	0	0	13N1301	1/8/13	Ecuador	Napo	Cosanga	Cosanga	Ecuador_Cosanga	0.5782	-77.8675	Wintering	Turbek et al. (In revision). Migratory connectivity influences the strength of local adaptation in migratory birds
13N1302	1	0	0	13N1302	1/8/13	Ecuador	Napo	Cosanga	Cosanga	Ecuador_Cosanga	0.5782	-77.8675	Wintering	Turbek et al. (In revision). Migratory connectivity influences the strength of local adaptation in migratory birds
13N1303	1	0	0	13N1303	1/8/13	Ecuador	Napo	Cosanga	Cosanga	Ecuador_Cosanga	0.5782	-77.8675	Wintering	Turbek et al. (In revision). Migratory connectivity influences the strength of local adaptation in migratory birds
14N02028	1	0	0	14N02028	1/8/14	Colombia	Cundinamarca	Los Vientos	Los Vientos	Colombia_Cundinamarca	4.365643021	-74.51534702	Wintering	Turbek et al. (In revision). Migratory connectivity influences the strength of local adaptation in migratory birds
14N02030	1	0	0	14N02030	1/11/14	Colombia	Cundinamarca	La Fragua	La Fragua	Colombia_Cundinamarca	4.322412	-74.536308	Wintering	Turbek et al. (In revision). Migratory connectivity influences the strength of local adaptation in migratory birds
14N02031	1	0	0	14N02031	1/14/14	Colombia	Cundinamarca	Los Vientos	Los Vientos	Colombia_Cundinamarca	4.365643021	-74.51534702	Wintering	Turbek et al. (In revision). Migratory connectivity influences the strength of local adaptation in migratory birds
14N02035	1	0	0	14N02035	1/15/14	Colombia	Cundinamarca	La Fragua	La Fragua	Colombia_Cundinamarca	4.322412	-74.536308	Wintering	Turbek et al. (In revision). Migratory connectivity influences the strength of local adaptation in migratory birds
14N02049	1	0	0	14N02049	12/15/14	Colombia	Cundinamarca	La Fragua	La Fragua	Colombia_Cundinamarca	4.322412	-74.536308	Wintering	Turbek et al. (In revision). Migratory connectivity influences the strength of local adaptation in migratory birds
14N02052	1	0	0	14N02052	12/15/14	Colombia	Cundinamarca	La Vuelta	La Vuelta	Colombia_Cundinamarca	4.325313	-74.481858	Wintering	Turbek et al. (In revision). Migratory connectivity influences the strength of local adaptation in migratory birds
14N02060	1	0	0	14N02060	12/17/14	Colombia	Cundinamarca	La Fragua	La Fragua	Colombia_Cundinamarca	4.322412	-74.536308	Wintering	Turbek et al. (In revision). Migratory connectivity influences the strength of local adaptation in migratory birds
14N02064	1	0	0	14N02064	12/19/14	Colombia	Cundinamarca	La Fragua	La Fragua	Colombia_Cundinamarca	4.322412	-74.536308	Wintering	Turbek et al. (In revision). Migratory connectivity influences the strength of local adaptation in migratory birds
14N0960	1	0	0	14N0960	1/7/14	Ecuador	Ecuador	NA	Ecuador	Ecuador_Hollin	-0.671166923	-77.59831062	Wintering	Turbek et al. (In revision). Migratory connectivity influences the strength of local adaptation in migratory birds
14N0961	1	0	0	14N0961	1/7/14	Ecuador	Ecuador	NA	Ecuador	Ecuador_Hollin	-0.671239226	-77.59831066	Wintering	Turbek et al. (In revision). Migratory connectivity influences the strength of local adaptation in migratory birds
14N0962	1	0	0	14N0962	1/7/14	Ecuador	Ecuador	NA	Ecuador	Ecuador_Hollin	-0.671239226	-77.59831066	Wintering	Turbek et al. (In revision). Migratory connectivity influences the strength of local adaptation in migratory birds
14N0963	1	0	0	14N0963	1/8/14	Ecuador	Ecuador	NA	Ecuador	Ecuador_Hollin	-0.671871661	-77.59872398	Wintering	Turbek et al. (In revision). Migratory connectivity influences the strength of local adaptation in migratory birds
14N0964	1	0	0	14N0964	1/8/14	Ecuador	Ecuador	NA	Ecuador	Ecuador_Hollin	-0.671871661	-77.59872398	Wintering	Turbek et al. (In revision). Migratory connectivity influences the strength of local adaptation in migratory birds
15N04842	1	0	0	15N04842	1/7/15	Colombia	Cundinamarca	La Vuelta	La Vuelta	Colombia_Cundinamarca	4.325313	-74.481858	Wintering	Turbek et al. (In revision). Migratory connectivity influences the strength of local adaptation in migratory birds
15N04849	1	0	0	15N04849	1/20/15	Colombia	Cundinamarca	La Fragua	La Fragua	Colombia_Cundinamarca	4.322412	-74.536308	Wintering	Turbek et al. (In revision). Migratory connectivity influences the strength of local adaptation in migratory birds
18N04875	1	0	0	18N04875	1/9/18	Argentina	Argentina	Tucuman	Tucuman	Argentina_Tucuman	-26.867872	-65.344492	Wintering	Turbek et al. (In revision). Migratory connectivity influences the strength of local adaptation in migratory birds
19N00158	1	0	0	19N00158	1/21/19	Argentina	Argentina	Tucuman	Tucuman	Argentina_Tucuman	-26.867872	-65.344492	Wintering	Turbek et al. (In revision). Migratory connectivity influences the strength of local adaptation in migratory birds
19N00159	1	0	0	19N00159	1/21/19	Argentina	Argentina	Tucuman	Tucuman	Argentina_Tucuman	-26.867872	-65.344492	Wintering	Turbek et al. (In revision). Migratory connectivity influences the strength of local adaptation in migratory birds
19N00160	1	0	0	19N00160	2/9/19	Argentina	Argentina	Tucuman	Tucuman	Argentina_Tucuman	-26.867872	-65.344492	Wintering	Turbek et al. (In revision). Migratory connectivity influences the strength of local adaptation in migratory birds
19N00161	1	0	0	19N00161	2/14/19	Argentina	Argentina	Tucuman	Tucuman	Argentina_Tucuman	-26.867872	-65.344492	Wintering	Turbek et al. (In revision). Migratory connectivity influences the strength of local adaptation in migratory birds
19N00162	1	0	0	19N00162	2/14/19	Argentina	Argentina	Tucuman	Tucuman	Argentina_Tucuman	-26.867872	-65.344492	Wintering	Turbek et al. (In revision). Migratory connectivity influences the strength of local adaptation in migratory birds
21N00804	0	0	1	21N00804	2/19/08	Mexico	Oaxaca	Pluma Hidalgo	Pluma Hidalgo	Mexico_Pluma Hidalgo	15.92515	-96.42089167	Wintering	Turbek et al. (In revision). Migratory connectivity influences the strength of local adaptation in migratory birds
21N00805	0	0	1	21N00805	12/13/07	Mexico	Oaxaca	Pluma Hidalgo	Pluma Hidalgo	Mexico_Pluma Hidalgo	15.94860833	-96.425775	Wintering	Turbek et al. (In revision). Migratory connectivity influences the strength of local adaptation in migratory birds
21N00806	0	0	1	21N00806	2/17/08	Mexico	Oaxaca	Pluma Hidalgo	Pluma Hidalgo	Mexico_Pluma Hidalgo	15.92515	-96.42089167	Wintering	Turbek et al. (In revision). Migratory connectivity influences the strength of local adaptation in migratory birds
21N00807	0	0	1	21N00807	12/14/07	Mexico	Oaxaca	Pluma Hidalgo	Pluma Hidalgo	Mexico_Pluma Hidalgo	15.94860833	-96.425775	Wintering	Turbek et al. (In revision). Migratory connectivity influences the strength of local adaptation in migratory birds
21N00808	0	0	1	21N00808	2/17/08	Mexico	Oaxaca	Pluma Hidalgo	Pluma Hidalgo	Mexico_Pluma Hidalgo	15.92515	-96.42089167	Wintering	Turbek et al. (In revision). Migratory connectivity influences the strength of local adaptation in migratory birds
21N00809	0	0	1	21N00809	2/16/08	Mexico	Oaxaca	Pluma Hidalgo	Pluma Hidalgo	Mexico_Pluma Hidalgo	15.89416944	-96.39656111	Wintering	Turbek et al. (In revision). Migratory connectivity influences the strength of local adaptation in migratory birds
96N3047	0	0.2	0.8	96N3047	2/14/96	Mexico	Chiapas	NA	Chiapas	Mexico_Chiapas	15.656999	-92.808725	Wintering	Turbek et al. (In revision). Migratory connectivity influences the strength of local adaptation in migratory birds
97N2001	0	0	1	97N2001	1/7/97	Hondurus	TG	TEGUCIGALPA	Tegucigalpa	Hondurus_Tegucigalpa	14.4133	-87.0997	Wintering	Turbek et al. (In revision). Migratory connectivity influences the strength of local adaptation in migratory birds
97N2002	0	0.5	0.5	97N2002	1/7/97	Hondurus	TG	TEGUCIGALPA	Tegucigalpa	Hondurus_Tegucigalpa	14.4133	-87.0997	Wintering	Turbek et al. (In revision). Migratory connectivity influences the strength of local adaptation in migratory birds
97N7007	0	0	1	97N7007	2/18/97	Mexico	Chiapas	NA	Chiapas	Mexico_Chiapas	15.656999	-92.808725	Wintering	Turbek et al. (In revision). Migratory connectivity influences the strength of local adaptation in migratory birds
97N7009	0	0	1	97N7009	2/18/97	Mexico	Chiapas	NA	Chiapas	Mexico_Chiapas	15.656999	-92.808725	Wintering	Turbek et al. (In revision). Migratory connectivity influences the strength of local adaptation in migratory birds
97N7013	0	1	0	97N7013	2/18/97	Mexico	Chiapas	NA	Chiapas	Mexico_Chiapas	15.656999	-92.808725	Wintering	Turbek et al. (In revision). Migratory connectivity influences the strength of local adaptation in migratory birds
97N7014	0	0	1	97N7014	2/14/97	Mexico	Chiapas	NA	Chiapas	Mexico_Chiapas	15.656999	-92.808725	Wintering	Turbek et al. (In revision). Migratory connectivity influences the strength of local adaptation in migratory birds
98N0092	0	0.6	0.4	98N0092	1/27/98	Costa Rica	Guanacaste	MONTEVERDE CLOUD FOREST RESERVE	Monte Verde	Costa Rica_Monte Verde	10.614	-84.8097	Wintering	Turbek et al. (In revision). Migratory connectivity influences the strength of local adaptation in migratory birds
98N0098	0	0.6	0.4	98N0098	1/29/98	Costa Rica	Guanacaste	MONTEVERDE CLOUD FOREST RESERVE	Monte Verde	Costa Rica_Monte Verde	10.614	-84.8097	Wintering	Turbek et al. (In revision). Migratory connectivity influences the strength of local adaptation in migratory birds
98N0099	0	1	0	98N0099	1/29/98	Costa Rica	Guanacaste	MONTEVERDE CLOUD FOREST RESERVE	Monte Verde	Costa Rica_Monte Verde	10.614	-84.8097	Wintering	Turbek et al. (In revision). Migratory connectivity influences the strength of local adaptation in migratory birds
98N0102	0	0.1	0.9	98N0102	1/30/98	Costa Rica	Guanacaste	MONTEVERDE CLOUD FOREST RESERVE	Monte Verde	Costa Rica_Monte Verde	10.614	-84.8097	Wintering	Turbek et al. (In revision). Migratory connectivity influences the strength of local adaptation in migratory birds
98N1108	0	1	0	98N1108	1/22/98	Mexico	Chiapas	Reserva El Ocote	Reserva El Ocote	Mexico_Reserva El Ocote	17.5162	-93.3739	Wintering	Turbek et al. (In revision). Migratory connectivity influences the strength of local adaptation in migratory birds
98N1119	0	0	1	98N1119	1/22/98	Mexico	Chiapas	Reserva El Ocote	Reserva El Ocote	Mexico_Reserva El Ocote	17.5162	-93.3739	Wintering	Turbek et al. (In revision). Migratory connectivity influences the strength of local adaptation in migratory birds
98N1120	0	1	0	98N1120	1/23/98	Mexico	Chiapas	Reserva El Ocote	Reserva El Ocote	Mexico_Reserva El Ocote	17.5162	-93.3739	Wintering	Turbek et al. (In revision). Migratory connectivity influences the strength of local adaptation in migratory birds
98N1121	0	0	1	98N1121	1/23/98	Mexico	Chiapas	Reserva El Ocote	Reserva El Ocote	Mexico_Reserva El Ocote	17.5162	-93.3739	Wintering	Turbek et al. (In revision). Migratory connectivity influences the strength of local adaptation in migratory birds
98N1126	0	1	0	98N1126	1/24/98	Mexico	Chiapas	Reserva El Ocote	Reserva El Ocote	Mexico_Reserva El Ocote	17.5162	-93.3739	Wintering	Turbek et al. (In revision). Migratory connectivity influences the strength of local adaptation in migratory birds
98N1131	0	1	0	98N1131	1/24/98	Mexico	Chiapas	Reserva El Ocote	Reserva El Ocote	Mexico_Reserva El Ocote	17.5162	-93.3739	Wintering	Turbek et al. (In revision). Migratory connectivity influences the strength of local adaptation in migratory birds
98N1132	0	0	1	98N1132	1/24/98	Mexico	Chiapas	Reserva El Ocote	Reserva El Ocote	Mexico_Reserva El Ocote	17.5162	-93.3739	Wintering	Turbek et al. (In revision). Migratory connectivity influences the strength of local adaptation in migratory birds
98N4087	0	0	1	98N4087	2/28/98	Mexico	Jalisco	NA	Jalisco	Mexico_Jalisco	19.563156	-104.119879	Wintering	Turbek et al. (In revision). Migratory connectivity influences the strength of local adaptation in migratory birds
KSW4587-25964	1	0	0	KSW4587-25964	NA	Peru	Ucayali	NA	Ucayali	Peru_Ucayali	-9.8251	-73.0877	Wintering	Turbek et al. (In revision). Migratory connectivity influences the strength of local adaptation in migratory birds
KSW4605-25963	1	0	0	KSW4605-25963	NA	Peru	Ucayali	NA	Ucayali	Peru_Ucayali	-9.8251	-73.0877	Wintering	Turbek et al. (In revision). Migratory connectivity influences the strength of local adaptation in migratory birds
KSW4617-22367	1	0	0	KSW4617-22367	NA	Peru	Ucayali	NA	Ucayali	Peru_Ucayali	-9.8251	-73.0877	Wintering	Turbek et al. (In revision). Migratory connectivity influences the strength of local adaptation in migratory birds
MJM1260-25965	1	0	0	MJM1260-25965	NA	Peru	Ucayali	NA	Ucayali	Peru_Ucayali	-9.8251	-73.0877	Wintering	Turbek et al. (In revision). Migratory connectivity influences the strength of local adaptation in migratory birds
MJM1264-25966	1	0	0	MJM1264-25966	NA	Peru	Ucayali	NA	Ucayali	Peru_Ucayali	-9.8251	-73.0877	Wintering	Turbek et al. (In revision). Migratory connectivity influences the strength of local adaptation in migratory birds
MJM1335-26011	1	0	0	MJM1335-26011	NA	Peru	Ucayali	NA	Ucayali	Peru_Ucayali	-9.8251	-73.0877	Wintering	Turbek et al. (In revision). Migratory connectivity influences the strength of local adaptation in migratory birds
MJM1354-30947	1	0	0	MJM1354-30947	NA	Peru	Ucayali	NA	Ucayali	Peru_Ucayali	-9.8251	-73.0877	Wintering	Turbek et al. (In revision). Migratory connectivity influences the strength of local adaptation in migratory birds